NORAD_CAT_ID,OBJECT_NAME,OBJECT_TYPE,EPOCH,MEAN_MOTION,ECCENTRICITY,INCLINATION,RA_OF_ASC_NODE,ARG_OF_PERICENTER,MEAN_ANOMALY,BSTAR,MEAN_MOTION_DOT,MEAN_MOTION_DDOT,TLE_LINE0,TLE_LINE1,TLE_LINE2,SEMIMAJOR_AXIS,PERIOD,APOGEE,PERIGEE,DECAYED
53827.0,STARLINK-4764,PAYLOAD,2024-08-04 12:38:15,15.08841441,0.0001346,53.2159,37.615,85.8516,274.263,0.00077462,0.00012062,0.0,0 STARLINK-4764,1 53827U 22114K   24217.52656490  .00012062  00000-0  77462-3 0  9998,2 53827  53.2159  37.6150 0001346  85.8516 274.2630 15.08841441104400,6917.876,95.437,540.672,538.81,0.0
53827.0,STARLINK-4764,PAYLOAD,2024-08-04 18:59:47,15.08863553,0.0001334,53.2162,36.4247,82.9462,277.1682,0.0013136,0.00020693,0.0,0 STARLINK-4764,1 53827U 22114K   24217.79152060  .00020693  00000-0  13136-2 0  9997,2 53827  53.2162  36.4247 0001334  82.9462 277.1682 15.08863553104444,6917.808,95.436,540.596,538.751,0.0
53827.0,STARLINK-4764,PAYLOAD,2024-08-05 04:32:06,15.08855234,0.0001419,53.2158,34.6409,90.6273,269.4882,0.00062922,9.744e-05,0.0,0 STARLINK-4764,1 53827U 22114K   24218.18896021  .00009744  00000-0  62922-3 0  9995,2 53827  53.2158  34.6409 0001419  90.6273 269.4882 15.08855234104509,6917.834,95.437,540.68,538.717,0.0
53827.0,STARLINK-4764,PAYLOAD,2024-08-05 18:50:34,15.08834477,0.000155,53.2165,31.9645,101.0085,259.1082,0.0010834,0.00016994,0.0,0 STARLINK-4764,1 53827U 22114K   24218.78512560  .00016994  00000-0  10834-2 0  9993,2 53827  53.2165  31.9645 0001550 101.0085 259.1082 15.08834477104596,6917.897,95.438,540.835,538.69,0.0
53827.0,STARLINK-4764,PAYLOAD,2024-08-06 04:22:53,15.08837461,0.000156,53.2169,30.1803,94.8773,265.2397,0.00065692,0.00010182,0.0,0 STARLINK-4764,1 53827U 22114K   24219.18256753  .00010182  00000-0  65692-3 0  9993,2 53827  53.2169  30.1803 0001560  94.8773 265.2397 15.08837461104651,6917.888,95.438,540.832,538.674,0.0
53827.0,STARLINK-4764,PAYLOAD,2024-08-06 18:41:22,15.08837253,0.0001452,53.2162,27.5027,84.9509,275.1649,0.00019557,2.826e-05,0.0,0 STARLINK-4764,1 53827U 22114K   24219.77873071  .00002826  00000-0  19557-3 0  9991,2 53827  53.2162  27.5027 0001452  84.9509 275.1649 15.08837253104748,6917.889,95.438,540.758,538.749,0.0
53827.0,STARLINK-4764,PAYLOAD,2024-08-06 21:52:08,15.08842079,0.0001477,53.2158,26.9071,85.0042,275.1119,0.00059526,9.199e-05,0.0,0 STARLINK-4764,1 53827U 22114K   24219.91121130  .00009199  00000-0  59526-3 0  9999,2 53827  53.2158  26.9071 0001477  85.0042 275.1119 15.08842079105303,6917.874,95.437,540.761,538.717,0.0
53827.0,STARLINK-4764,PAYLOAD,2024-08-07 16:56:46,15.08859942,0.0001654,53.2173,23.3366,75.1074,285.0101,0.00090864,0.0001421,0.0,0 STARLINK-4764,1 53827U 22114K   24220.70608824  .00014210  00000-0  90864-3 0  9998,2 53827  53.2173  23.3366 0001654  75.1074 285.0101 15.08859942104880,6917.819,95.436,540.829,538.54,0.0
53827.0,STARLINK-4764,PAYLOAD,2024-08-08 10:25:58,15.08887164,0.0001537,53.2171,20.0661,78.2224,281.894,0.0011348,0.00017842,0.0,0 STARLINK-4764,1 53827U 22114K   24221.43471058  .00017842  00000-0  11348-2 0  9999,2 53827  53.2171  20.0661 0001537  78.2224 281.8940 15.08887164105536,6917.736,95.435,540.664,538.538,0.0
53827.0,STARLINK-4764,PAYLOAD,2024-08-08 16:47:31,15.08839959,0.0001253,53.2173,18.8762,69.6599,290.4528,-0.00059656,-9.769e-05,0.0,0 STARLINK-4764,1 53827U 22114K   24221.69967066 -.00009769  00000-0 -59656-3 0  9992,2 53827  53.2173  18.8762 0001253  69.6599 290.4528 15.08839959105031,6917.881,95.438,540.612,538.879,0.0
53827.0,STARLINK-4764,PAYLOAD,2024-08-09 03:55:14,15.08816805,0.0001249,53.2168,16.7963,91.4701,268.6434,0.0004124,6.277e-05,0.0,0 STARLINK-4764,1 53827U 22114K   24222.16336156  .00006277  00000-0  41240-3 0  9994,2 53827  53.2168  16.7963 0001249  91.4701 268.6434 15.08816805105104,6917.951,95.439,540.68,538.952,0.0
53827.0,STARLINK-4764,PAYLOAD,2024-08-09 16:38:19,15.08830894,0.0001089,53.2159,14.4161,91.0167,269.095,0.00075766,0.00011788,0.0,0 STARLINK-4764,1 53827U 22114K   24222.69328585  .00011788  00000-0  75766-3 0  9992,2 53827  53.2159  14.4161 0001089  91.0167 269.0950 15.08830894105723,6917.908,95.438,540.527,539.02,0.0
53827.0,STARLINK-4764,PAYLOAD,2024-08-10 14:53:43,15.08842246,0.0001443,53.217,10.2527,96.9134,263.2022,0.00039368,5.983e-05,0.0,0 STARLINK-4764,1 53827U 22114K   24223.62064779  .00005983  00000-0  39368-3 0  9996,2 53827  53.2170  10.2527 0001443  96.9134 263.2022 15.08842246105863,6917.874,95.437,540.737,538.74,0.0
53827.0,STARLINK-4764,PAYLOAD,2024-08-10 16:29:07,15.08845169,0.0001358,53.2174,9.9575,81.4868,278.6278,0.00055355,8.534e-05,0.0,0 STARLINK-4764,1 53827U 22114K   24223.68688835  .00008534  00000-0  55355-3 0  9996,2 53827  53.2174   9.9575 0001358  81.4868 278.6278 15.08845169105335,6917.865,95.437,540.669,538.79,0.0
53827.0,STARLINK-4764,PAYLOAD,2024-08-11 09:58:22,15.08835942,0.000131,53.2168,6.6845,78.4151,281.6988,0.00018628,2.678e-05,0.0,0 STARLINK-4764,1 53827U 22114K   24224.41553317  .00002678  00000-0  18628-3 0  9999,2 53827  53.2168   6.6845 0001310  78.4151 281.6988 15.08835942105443,6917.893,95.438,540.664,538.852,0.0
53827.0,STARLINK-4764,PAYLOAD,2024-08-11 19:30:40,15.08855485,0.000155,53.2182,4.9019,81.0314,279.0854,0.000879,0.00013735,0.0,0 STARLINK-4764,1 53827U 22114K   24224.81296931  .00013735  00000-0  87900-3 0  9994,2 53827  53.2182   4.9019 0001550  81.0314 279.0854 15.08855485105504,6917.833,95.437,540.77,538.626,0.0
53827.0,STARLINK-4764,PAYLOAD,2024-08-12 01:52:13,15.08823941,0.0002697,53.2172,3.7118,85.0642,275.0658,-0.00017565,-3.082e-05,0.0,0 STARLINK-4764,1 53827U 22114K   24225.07793969 -.00003082  00000-0 -17565-3 0  9992,2 53827  53.2172   3.7118 0002697  85.0642 275.0658 15.08823941105545,6917.929,95.439,541.66,537.929,0.0
53827.0,STARLINK-4764,PAYLOAD,2024-08-12 09:49:09,15.08837949,0.0001785,53.2174,2.2291,99.0467,261.0727,0.00032325,4.86e-05,0.0,0 STARLINK-4764,1 53827U 22114K   24225.40913563  .00004860  00000-0  32325-3 0  9997,2 53827  53.2174   2.2291 0001785  99.0467 261.0727 15.08837949105590,6917.887,95.438,540.987,538.517,0.0
53827.0,STARLINK-4764,PAYLOAD,2024-08-12 19:21:27,15.08884534,0.0002546,53.2158,0.445,97.1477,262.9805,0.0016176,0.00025582,0.0,0 STARLINK-4764,1 53827U 22114K   24225.80656382  .00025582  00000-0  16176-2 0  9993,2 53827  53.2158   0.4450 0002546  97.1477 262.9805 15.08884534105651,6917.744,95.435,541.371,537.848,0.0
53827.0,STARLINK-4764,PAYLOAD,2024-08-13 01:42:59,15.08887248,0.000237,53.2185,359.2516,88.6516,271.4748,0.0014424,0.00022772,0.0,0 STARLINK-4764,1 53827U 22114K   24226.07151862  .00022772  00000-0  14424-2 0  9998,2 53827  53.2185 359.2516 0002370  88.6516 271.4748 15.08887248105693,6917.736,95.435,541.24,537.961,0.0
53827.0,STARLINK-4764,PAYLOAD,2024-08-13 09:39:53,15.08882039,0.000232,53.2149,357.7639,106.0133,254.1115,0.00057795,8.932e-05,0.0,0 STARLINK-4764,1 53827U 22114K   24226.40270805  .00008932  00000-0  57795-3 0  9995,2 53827  53.2149 357.7639 0002320 106.0133 254.1115 15.08882039105742,6917.752,95.435,541.222,538.012,0.0
53827.0,STARLINK-4764,PAYLOAD,2024-08-13 16:01:27,15.08818964,0.0001868,53.2165,356.577,90.1295,269.9911,-0.0010187,-0.00016455,0.0,0 STARLINK-4764,1 53827U 22114K   24226.66768513 -.00016455  00000-0 -10187-2 0  9995,2 53827  53.2165 356.5770 0001868  90.1295 269.9911 15.08818964105789,6917.945,95.439,541.102,538.517,0.0
53827.0,STARLINK-4764,PAYLOAD,2024-08-14 12:41:29,15.08818454,4.35e-05,53.2143,352.7122,90.0624,270.0418,-0.00010491,-1.956e-05,0.0,0 STARLINK-4764,1 53827U 22114K   24227.52881471 -.00001956  00000-0 -10491-3 0  9999,2 53827  53.2143 352.7122 0000435  90.0624 270.0418 15.08818454105912,6917.946,95.439,540.112,539.51,0.0
53827.0,STARLINK-4764,PAYLOAD,2024-08-14 14:16:52,15.08823446,8.33e-05,53.2154,352.4123,79.2544,280.8542,0.00017193,2.448e-05,0.0,0 STARLINK-4764,1 53827U 22114K   24227.59505614  .00002448  00000-0  17193-3 0  9999,2 53827  53.2154 352.4123 0000833  79.2544 280.8542 15.08823446106469,6917.931,95.439,540.372,539.22,0.0
53827.0,STARLINK-4764,PAYLOAD,2024-08-14 15:52:16,15.08827203,0.0001197,53.2162,352.116,82.5734,277.5394,0.001013,0.00015865,0.0,0 STARLINK-4764,1 53827U 22114K   24227.66129921  .00015865  00000-0  10130-2 0  9990,2 53827  53.2162 352.1160 0001197  82.5734 277.5394 15.08827203106472,6917.92,95.438,540.613,538.956,0.0
53827.0,STARLINK-4764,PAYLOAD,2024-08-15 20:29:12,15.08855534,0.0001575,53.217,346.7613,71.9241,288.1922,0.00081947,0.00012783,0.0,0 STARLINK-4764,1 53827U 22114K   24228.85361881  .00012783  00000-0  81947-3 0  9996,2 53827  53.2170 346.7613 0001575  71.9241 288.1922 15.08855534106651,6917.833,95.437,540.787,538.608,0.0
53827.0,STARLINK-4764,PAYLOAD,2024-08-17 02:41:32,15.08842651,9.05e-05,53.2163,341.1137,52.0075,308.0999,0.00085334,0.0001332,0.0,0 STARLINK-4764,1 53827U 22114K   24230.11218559  .00013320  00000-0  85334-3 0  9993,2 53827  53.2163 341.1137 0000905  52.0075 308.0999 15.08842651106308,6917.872,95.437,540.363,539.111,0.0
53827.0,STARLINK-4764,PAYLOAD,2024-08-17 17:00:01,15.08835778,0.0001987,53.2157,338.438,104.9131,255.2081,0.00095977,0.00015018,0.0,0 STARLINK-4764,1 53827U 22114K   24230.70834928  .00015018  00000-0  95977-3 0  9992,2 53827  53.2157 338.4380 0001987 104.9131 255.2081 15.08835778106397,6917.893,95.438,541.133,538.384,0.0
53827.0,STARLINK-4764,PAYLOAD,2024-08-18 16:50:47,15.08874731,0.0001973,53.217,333.9753,122.4676,237.6507,0.0011751,0.00018481,0.0,0 STARLINK-4764,1 53827U 22114K   24231.70193622  .00018481  00000-0  11751-2 0  9996,2 53827  53.2170 333.9753 0001973 122.4676 237.6507 15.08874731107086,6917.774,95.435,541.004,538.274,0.0
53827.0,STARLINK-4764,PAYLOAD,2024-08-19 13:30:48,15.08840658,0.000142,53.2177,330.1114,110.7596,249.3548,0.00027653,4.116e-05,0.0,0 STARLINK-4764,1 53827U 22114K   24232.56306205  .00004116  00000-0  27653-3 0  9993,2 53827  53.2177 330.1114 0001420 110.7596 249.3548 15.08840658106671,6917.878,95.438,540.726,538.761,0.0
